OBJECT_NAME,OBJECT_ID,EPOCH,MEAN_MOTION,ECCENTRICITY,INCLINATION,RA_OF_ASC_NODE,ARG_OF_PERICENTER,MEAN_ANOMALY,EPHEMERIS_TYPE,CLASSIFICATION_TYPE,NORAD_CAT_ID,ELEMENT_SET_NO,REV_AT_EPOCH,BSTAR,MEAN_MOTION_DOT,MEAN_MOTION_DDOT
STARLINK-32759,2025-014S,2026-06-01T02:49:45.310656,15.27601358,.00021103,42.9994,46.9538,251.5693,108.4929,0,U,62751,999,7597,.85421983E-3,.23334E-3,0
STARLINK-32756,2025-014T,2026-06-05T07:31:18.094368,15.27647356,.00019787,43.0222,19.9219,38.3715,321.7278,0,U,62752,999,7665,.81316713E-3,.22227E-3,0
STARLINK-32751,2025-014U,2026-06-05T07:22:00.460992,15.27550778,.00037339,42.9990,19.8886,259.9966,100.0465,0,U,62753,999,7665,.51267793E-3,.13861E-3,0
STARLINK-32740,2025-014V,2026-06-04T20:39:22.868640,15.27610029,.00016165,43.0035,21.7011,287.9297,72.1378,0,U,62754,999,7659,.13136631E-2,.36097E-3,0
STARLINK-32745,2025-014W,2026-06-03T18:59:46.768992,15.27624214,.00015063,43.0006,28.2941,257.3770,102.6913,0,U,62755,999,7642,.69847835E-3,.19034E-3,0
STARLINK-33596,2025-015A,2026-06-05T17:39:00.878112,15.31737131,.00009556,53.1594,273.3347,88.2409,271.8701,0,U,62758,999,7789,.9802121E-3,.30211E-3,0
STARLINK-33589,2025-015B,2026-06-05T19:19:41.582496,15.31739438,.00013093,53.1603,273.0679,125.8890,234.2233,0,U,62759,999,7721,.11057195E-2,.34146E-3,0
STARLINK-33575,2025-015C,2026-06-05T19:18:58.317696,15.34363071,.00009168,53.1587,272.3165,104.8707,255.2397,0,U,62760,999,7722,.11407873E-2,.38319E-3,0
STARLINK-33584,2025-015D,2026-06-05T14:46:40.890720,15.34407972,.00013403,53.1594,273.3037,117.0457,243.0683,0,U,62761,999,7795,.80443542E-3,.26907E-3,0
STARLINK-33577,2025-015E,2026-06-06T00:13:56.116128,15.31757265,.00022543,53.1585,271.4880,89.4333,270.6927,0,U,62762,999,7801,.12617334E-2,.39065E-3,0
STARLINK-33597,2025-015F,2026-06-05T14:44:32.453664,15.31732208,.00009626,53.1587,273.9961,88.9304,271.1808,0,U,62763,999,7794,.86022695E-3,.2645E-3,0
STARLINK-33579,2025-015G,2026-06-06T00:21:36.197856,15.31731429,.0001197,53.1574,271.5279,113.2085,246.9042,0,U,62764,999,7801,.93044146E-3,.28647E-3,0
STARLINK-33592,2025-015H,2026-06-06T01:06:54.636480,15.34419187,.00008914,53.1607,271.0104,284.4167,75.6737,0,U,62765,999,7789,.11658633E-2,.39245E-3,0
STARLINK-33595,2025-015J,2026-06-05T14:13:22.938240,15.34421345,.00012989,53.1608,273.1554,85.8989,274.2162,0,U,62766,999,7795,.83342514E-3,.27906E-3,0
STARLINK-33572,2025-015K,2026-06-05T16:59:53.371104,15.34467675,.00018911,53.1604,273.1592,50.4741,309.6429,0,U,62767,999,7790,.13182256E-2,.44524E-3,0
STARLINK-33601,2025-015L,2026-06-05T11:26:59.410464,15.34414261,.00008866,53.1591,273.8524,110.5006,249.6091,0,U,62768,999,7793,.45298742E-3,.14966E-3,0
STARLINK-33569,2025-015M,2026-06-06T00:51:53.250336,15.34424451,.00010259,53.1610,271.6511,81.5336,278.5783,0,U,62769,999,7801,.9925219E-3,.33333E-3,0
STARLINK-33594,2025-015N,2026-06-06T00:28:19.427520,15.31734517,.00011777,53.1588,271.5552,104.8473,255.2659,0,U,62770,999,7801,.95374491E-3,.29379E-3,0
STARLINK-33598,2025-015P,2026-06-06T00:33:42.364800,15.34410498,.00017105,53.1602,271.5667,99.1362,260.9834,0,U,62771,999,7801,.92223507E-3,.30922E-3,0
STARLINK-33600,2025-015Q,2026-06-06T00:00:02.999808,15.31742738,.00010729,53.1584,272.2503,81.5556,221.1699,0,U,62772,999,577,-.34350376E-3,-.11023E-3,0
STARLINK-33567,2025-015R,2026-06-06T00:27:38.835936,15.34413758,.00010158,53.1595,271.5408,92.9732,267.1387,0,U,62773,999,7801,.55876542E-3,.18558E-3,0
STARLINK-33574,2025-015S,2026-06-05T15:56:15.578016,15.34397659,.00013278,53.1594,272.8893,100.7713,259.3439,0,U,62774,999,7768,.82290624E-3,.27527E-3,0
STARLINK-33576,2025-015T,2026-06-06T01:15:59.728896,15.34429338,.00007677,53.1605,271.0509,92.9578,267.1513,0,U,62775,999,7796,.12042422E-2,.40569E-3,0
STARLINK-33570,2025-015U,2026-06-05T11:23:57.724224,15.34398873,.00011635,53.1589,273.8387,102.7490,257.3642,0,U,62776,999,7787,.97125968E-3,.32581E-3,0
STARLINK-33591,2025-015V,2026-06-06T00:00:02.999808,15.34433803,.00010397,53.1591,271.4546,81.7973,265.3834,0,U,62777,999,588,-.18835824E-3,-.6741E-4,0
STARLINK-33573,2025-015W,2026-06-05T00:00:02.000160,15.33553316,.00012816,53.1604,276.5468,85.0363,280.6501,0,U,62778,999,587,-.49843505E-3,-.16731E-3,0
STARLINK-33568,2025-015X,2026-06-06T06:00:02.000160,15.34398573,.00013014,53.1601,270.6983,88.3369,351.2245,0,U,62779,999,581,.25671414E-2,.87369E-3,0
STARLINK-33593,2025-015Y,2026-06-06T00:24:38.169216,15.34458233,.00005566,53.1579,271.5364,148.5621,211.5415,0,U,62780,999,7801,.20968994E-2,.71278E-3,0
STARLINK-33588,2025-015Z,2026-06-06T00:20:46.192128,15.34421068,.0001198,53.1594,269.3244,84.8938,275.2202,0,U,62781,999,7804,.93201753E-3,.31266E-3,0
STARLINK-33585,2025-015AA,2026-06-05T14:43:26.025024,15.31703896,.00010953,53.1588,273.2821,98.2868,261.8257,0,U,62782,999,7767,.11266492E-2,.34763E-3,0
