STARLINK-32759          
1 62751U 25014S   26152.11788554  .00023334  00000+0  85422-3 0  9996
2 62751  42.9994  46.9538 0002110 251.5693 108.4929 15.27601358 75979
STARLINK-32756          
1 62752U 25014T   26156.31340387  .00022227  00000+0  81317-3 0  9990
2 62752  43.0222  19.9219 0001978  38.3715 321.7278 15.27647356 76650
STARLINK-32751          
1 62753U 25014U   26156.30694978  .00013861  00000+0  51268-3 0  9994
2 62753  42.9990  19.8886 0003733 259.9966 100.0465 15.27550778 76657
STARLINK-32740          
1 62754U 25014V   26155.86068135  .00036097  00000+0  13137-2 0  9993
2 62754  43.0035  21.7011 0001616 287.9297  72.1378 15.27610029 76599
STARLINK-32745          
1 62755U 25014W   26154.79151353  .00019034  00000+0  69848-3 0  9993
2 62755  43.0006  28.2941 0001506 257.3770 102.6913 15.27624214 76424
STARLINK-33596          
1 62758U 25015A   26156.73542683  .00030211  00000+0  98021-3 0  9998
2 62758  53.1594 273.3347 0000955  88.2409 271.8701 15.31737131 77895
STARLINK-33589          
1 62759U 25015B   26156.80534239  .00034146  00000+0  11057-2 0  9999
2 62759  53.1603 273.0679 0001309 125.8890 234.2233 15.31739438 77219
STARLINK-33575          
1 62760U 25015C   26156.80484164  .00038319  00000+0  11408-2 0  9998
2 62760  53.1587 272.3165 0000916 104.8707 255.2397 15.34363071 77225
STARLINK-33584          
1 62761U 25015D   26156.61575105  .00026907  00000+0  80444-3 0  9991
2 62761  53.1594 273.3037 0001340 117.0457 243.0683 15.34407972 77955
STARLINK-33577          
1 62762U 25015E   26157.00967727  .00039065  00000+0  12617-2 0  9996
2 62762  53.1585 271.4880 0002254  89.4333 270.6927 15.31757265 78016
STARLINK-33597          
1 62763U 25015F   26156.61426451  .00026450  00000+0  86023-3 0  9994
2 62763  53.1587 273.9961 0000962  88.9304 271.1808 15.31732208 77947
STARLINK-33579          
1 62764U 25015G   26157.01500229  .00028647  00000+0  93044-3 0  9997
2 62764  53.1574 271.5279 0001197 113.2085 246.9042 15.31731429 78012
STARLINK-33592          
1 62765U 25015H   26157.04646570  .00039245  00000+0  11659-2 0  9998
2 62765  53.1607 271.0104 0000891 284.4167  75.6737 15.34419187 77894
STARLINK-33595          
1 62766U 25015J   26156.59262660  .00027906  00000+0  83343-3 0  9993
2 62766  53.1608 273.1554 0001298  85.8989 274.2162 15.34421345 77950
STARLINK-33572          
1 62767U 25015K   26156.70825661  .00044524  00000+0  13182-2 0  9991
2 62767  53.1604 273.1592 0001891  50.4741 309.6429 15.34467675 77902
STARLINK-33601          
1 62768U 25015L   26156.47707651  .00014966  00000+0  45299-3 0  9996
2 62768  53.1591 273.8524 0000886 110.5006 249.6091 15.34414261 77939
STARLINK-33569          
1 62769U 25015M   26157.03603299  .00033333  00000+0  99252-3 0  9990
2 62769  53.1610 271.6511 0001025  81.5336 278.5783 15.34424451 78014
STARLINK-33594          
1 62770U 25015N   26157.01966930  .00029379  00000+0  95374-3 0  9990
2 62770  53.1588 271.5552 0001177 104.8473 255.2659 15.31734517 78011
STARLINK-33598          
1 62771U 25015P   26157.02340700  .00030922  00000+0  92224-3 0  9990
2 62771  53.1602 271.5667 0001710  99.1362 260.9834 15.34410498 78012
STARLINK-33600          
1 62772U 25015Q   26157.00003472 -.00011023  00000+0 -34350-3 0  9990
2 62772  53.1584 272.2503 0001072  81.5556 221.1699 15.31742738  5773
STARLINK-33567          
1 62773U 25015R   26157.01919949  .00018558  00000+0  55877-3 0  9992
2 62773  53.1595 271.5408 0001015  92.9732 267.1387 15.34413758 78012
STARLINK-33574          
1 62774U 25015S   26156.66406919  .00027527  00000+0  82291-3 0  9997
2 62774  53.1594 272.8893 0001327 100.7713 259.3439 15.34397659 77681
STARLINK-33576          
1 62775U 25015T   26157.05277464  .00040569  00000+0  12042-2 0  9990
2 62775  53.1605 271.0509 0000767  92.9578 267.1513 15.34429338 77969
STARLINK-33570          
1 62776U 25015U   26156.47497366  .00032581  00000+0  97126-3 0  9993
2 62776  53.1589 273.8387 0001163 102.7490 257.3642 15.34398873 77872
STARLINK-33591          
1 62777U 25015V   26157.00003472 -.00006741  00000+0 -18836-3 0  9997
2 62777  53.1591 271.4546 0001039  81.7973 265.3834 15.34433803  5888
STARLINK-33573          
1 62778U 25015W   26156.00002315 -.00016731  00000+0 -49844-3 0  9995
2 62778  53.1604 276.5468 0001281  85.0363 280.6501 15.33553316  5873
STARLINK-33568          
1 62779U 25015X   26157.25002315  .00087369  00000+0  25671-2 0  9998
2 62779  53.1601 270.6983 0001301  88.3369 351.2245 15.34398573  5810
STARLINK-33593          
1 62780U 25015Y   26157.01710844  .00071278  00000+0  20969-2 0  9994
2 62780  53.1579 271.5364 0000556 148.5621 211.5415 15.34458233 78019
STARLINK-33588          
1 62781U 25015Z   26157.01442352  .00031266  00000+0  93202-3 0  9995
2 62781  53.1594 269.3244 0001198  84.8938 275.2202 15.34421068 78045
STARLINK-33585          
1 62782U 25015AA  26156.61349566  .00034763  00000+0  11266-2 0  9998
2 62782  53.1588 273.2821 0001095  98.2868 261.8257 15.31703896 77679
